IRIDIUM 116             
1 43072U 17083C   24037.15517573  .00000183  00000+0  58386-4 0  9990
2 43072  86.4000 322.2887 0002283  88.4930 271.6528 14.34217202320614
IRIDIUM 130             
1 43073U 17083D   24037.19323023  .00000183  00000+0  58226-4 0  9993
2 43073  86.4008 322.4647 0001953  83.4630 276.6788 14.34218454320561
IRIDIUM 151             
1 43074U 17083E   24036.81901800  .00000251  00000+0  82670-4 0  9993
2 43074  86.4002 322.4677 0002426  79.6048 280.5421 14.34218930320539
IRIDIUM 134             
1 43075U 17083F   24036.85707232  .00000126  00000+0  38011-4 0  9992
2 43075  86.4002 322.4479 0001947  87.8855 272.2563 14.34218415320504
IRIDIUM 137             
1 43076U 17083G   24036.86975739  .00000145  00000+0  44855-4 0  9997
2 43076  86.4003 322.5183 0002448  88.1224 272.0253 14.34216795320570
IRIDIUM 141             
1 43077U 17083H   24037.14248953  .00000208  00000+0  67068-4 0  9992
2 43077  86.4000 322.2838 0002092  83.5793 276.5641 14.34218699320617
IRIDIUM 153             
1 43078U 17083J   24036.74582157  .00000417  00000+0  14170-3 0  9992
2 43078  86.3963 290.8987 0002144  72.7996 287.3434 14.34220930321660
IRIDIUM 131             
1 43079U 17083K   24036.85073112  .00000461  00000+0  15769-3 0  9995
2 43079  86.4005 322.5341 0002158  83.9606 276.1836 14.34219563320507
